[{"OBJECT_NAME":"FENGYUN 3A","OBJECT_ID":"2008-026A","EPOCH":"2026-05-22T06:00:24.223968","MEAN_MOTION":14.19564957,"ECCENTRICITY":0.00082618,"INCLINATION":98.6876,"RA_OF_ASC_NODE":83.5705,"ARG_OF_PERICENTER":195.7112,"MEAN_ANOMALY":164.3809,"EPHEMERIS_TYPE":0,"CLASSIFICATION_TYPE":"U","NORAD_CAT_ID":32958,"ELEMENT_SET_NO":999,"REV_AT_EPOCH":93172,"BSTAR":4.2409867e-05,"MEAN_MOTION_DOT":4.6e-07,"MEAN_MOTION_DDOT":0},{"OBJECT_NAME":"DMSP 5D-3 F18 (USA 210)","OBJECT_ID":"2009-057A","EPOCH":"2026-05-22T04:30:59.221152","MEAN_MOTION":14.14880753,"ECCENTRICITY":0.00104971,"INCLINATION":98.9028,"RA_OF_ASC_NODE":123.016,"ARG_OF_PERICENTER":330.8869,"MEAN_ANOMALY":29.1717,"EPHEMERIS_TYPE":0,"CLASSIFICATION_TYPE":"U","NORAD_CAT_ID":35951,"ELEMENT_SET_NO":999,"REV_AT_EPOCH":85591,"BSTAR":0.00013654599,"MEAN_MOTION_DOT":2.19e-06,"MEAN_MOTION_DDOT":0},{"OBJECT_NAME":"FENGYUN 3B","OBJECT_ID":"2010-059A","EPOCH":"2026-05-22T07:02:34.753920","MEAN_MOTION":14.14834819,"ECCENTRICITY":0.00209903,"INCLINATION":98.9629,"RA_OF_ASC_NODE":188.1957,"ARG_OF_PERICENTER":259.8413,"MEAN_ANOMALY":233.556,"EPHEMERIS_TYPE":0,"CLASSIFICATION_TYPE":"U","NORAD_CAT_ID":37214,"ELEMENT_SET_NO":999,"REV_AT_EPOCH":80376,"BSTAR":8.6642702e-05,"MEAN_MOTION_DOT":1.22e-06,"MEAN_MOTION_DDOT":0},{"OBJECT_NAME":"SUOMI NPP","OBJECT_ID":"2011-061A","EPOCH":"2026-05-22T06:15:19.887840","MEAN_MOTION":14.19511275,"ECCENTRICITY":0.0002661,"INCLINATION":98.7945,"RA_OF_ASC_NODE":83.3155,"ARG_OF_PERICENTER":57.9999,"MEAN_ANOMALY":302.1436,"EPHEMERIS_TYPE":0,"CLASSIFICATION_TYPE":"U","NORAD_CAT_ID":37849,"ELEMENT_SET_NO":999,"REV_AT_EPOCH":75476,"BSTAR":4.294103e-05,"MEAN_MOTION_DOT":4.6e-07,"MEAN_MOTION_DDOT":0},{"OBJECT_NAME":"METOP-B","OBJECT_ID":"2012-049A","EPOCH":"2026-05-22T05:09:49.539744","MEAN_MOTION":14.21424636,"ECCENTRICITY":0.0003395,"INCLINATION":98.652,"RA_OF_ASC_NODE":194.2302,"ARG_OF_PERICENTER":74.7663,"MEAN_ANOMALY":285.3889,"EPHEMERIS_TYPE":0,"CLASSIFICATION_TYPE":"U","NORAD_CAT_ID":38771,"ELEMENT_SET_NO":999,"REV_AT_EPOCH":70957,"BSTAR":4.9126141e-05,"MEAN_MOTION_DOT":6.4e-07,"MEAN_MOTION_DDOT":0},{"OBJECT_NAME":"FENGYUN 3C","OBJECT_ID":"2013-052A","EPOCH":"2026-05-22T05:56:59.657280","MEAN_MOTION":14.15748229,"ECCENTRICITY":0.001587,"INCLINATION":98.4967,"RA_OF_ASC_NODE":117.3165,"ARG_OF_PERICENTER":97.3233,"MEAN_ANOMALY":262.9746,"EPHEMERIS_TYPE":0,"CLASSIFICATION_TYPE":"U","NORAD_CAT_ID":39260,"ELEMENT_SET_NO":999,"REV_AT_EPOCH":65489,"BSTAR":5.9031382e-05,"MEAN_MOTION_DOT":7.5e-07,"MEAN_MOTION_DDOT":0},{"OBJECT_NAME":"METEOR-M 2","OBJECT_ID":"2014-037A","EPOCH":"2026-05-22T05:48:27.961056","MEAN_MOTION":14.21453738,"ECCENTRICITY":0.00068888,"INCLINATION":98.5108,"RA_OF_ASC_NODE":118.9025,"ARG_OF_PERICENTER":106.9961,"MEAN_ANOMALY":253.1972,"EPHEMERIS_TYPE":0,"CLASSIFICATION_TYPE":"U","NORAD_CAT_ID":40069,"ELEMENT_SET_NO":999,"REV_AT_EPOCH":61563,"BSTAR":7.7228152e-05,"MEAN_MOTION_DOT":1.27e-06,"MEAN_MOTION_DDOT":0},{"OBJECT_NAME":"CYGFM05","OBJECT_ID":"2016-078A","EPOCH":"2026-05-22T04:42:21.066624","MEAN_MOTION":15.55399442,"ECCENTRICITY":0.00090749,"INCLINATION":34.9574,"RA_OF_ASC_NODE":72.5374,"ARG_OF_PERICENTER":267.6891,"MEAN_ANOMALY":92.2794,"EPHEMERIS_TYPE":0,"CLASSIFICATION_TYPE":"U","NORAD_CAT_ID":41884,"ELEMENT_SET_NO":999,"REV_AT_EPOCH":52470,"BSTAR":0.00026078942,"MEAN_MOTION_DOT":0.00018357,"MEAN_MOTION_DDOT":0},{"OBJECT_NAME":"CYGFM04","OBJECT_ID":"2016-078B","EPOCH":"2026-05-22T02:48:11.925216","MEAN_MOTION":15.59894451,"ECCENTRICITY":0.0008228,"INCLINATION":34.9335,"RA_OF_ASC_NODE":42.0176,"ARG_OF_PERICENTER":303.9049,"MEAN_ANOMALY":56.0893,"EPHEMERIS_TYPE":0,"CLASSIFICATION_TYPE":"U","NORAD_CAT_ID":41885,"ELEMENT_SET_NO":999,"REV_AT_EPOCH":52492,"BSTAR":0.00027583238,"MEAN_MOTION_DOT":0.00023016,"MEAN_MOTION_DDOT":0},{"OBJECT_NAME":"CYGFM02","OBJECT_ID":"2016-078C","EPOCH":"2026-05-22T02:24:37.441440","MEAN_MOTION":15.62411762,"ECCENTRICITY":0.00093892,"INCLINATION":34.9418,"RA_OF_ASC_NODE":37.3756,"ARG_OF_PERICENTER":306.3045,"MEAN_ANOMALY":53.6813,"EPHEMERIS_TYPE":0,"CLASSIFICATION_TYPE":"U","NORAD_CAT_ID":41886,"ELEMENT_SET_NO":999,"REV_AT_EPOCH":52508,"BSTAR":0.00028644085,"MEAN_MOTION_DOT":0.00026379,"MEAN_MOTION_DDOT":0},{"OBJECT_NAME":"CYGFM01","OBJECT_ID":"2016-078D","EPOCH":"2026-05-22T04:41:56.031360","MEAN_MOTION":15.56034055,"ECCENTRICITY":0.00087839,"INCLINATION":34.9405,"RA_OF_ASC_NODE":73.8018,"ARG_OF_PERICENTER":262.5501,"MEAN_ANOMALY":97.4225,"EPHEMERIS_TYPE":0,"CLASSIFICATION_TYPE":"U","NORAD_CAT_ID":41887,"ELEMENT_SET_NO":999,"REV_AT_EPOCH":52465,"BSTAR":0.00026237703,"MEAN_MOTION_DOT":0.0001891,"MEAN_MOTION_DDOT":0},{"OBJECT_NAME":"CYGFM08","OBJECT_ID":"2016-078E","EPOCH":"2026-05-22T03:13:17.827104","MEAN_MOTION":15.58508707,"ECCENTRICITY":0.00102093,"INCLINATION":34.944,"RA_OF_ASC_NODE":54.4499,"ARG_OF_PERICENTER":288.7726,"MEAN_ANOMALY":71.1891,"EPHEMERIS_TYPE":0,"CLASSIFICATION_TYPE":"U","NORAD_CAT_ID":41888,"ELEMENT_SET_NO":999,"REV_AT_EPOCH":52490,"BSTAR":0.00026766462,"MEAN_MOTION_DOT":0.00021194,"MEAN_MOTION_DDOT":0},{"OBJECT_NAME":"CYGFM07","OBJECT_ID":"2016-078G","EPOCH":"2026-05-22T02:16:50.805408","MEAN_MOTION":15.58602998,"ECCENTRICITY":0.00086189,"INCLINATION":34.9458,"RA_OF_ASC_NODE":43.0749,"ARG_OF_PERICENTER":303.2632,"MEAN_ANOMALY":56.7267,"EPHEMERIS_TYPE":0,"CLASSIFICATION_TYPE":"U","NORAD_CAT_ID":41890,"ELEMENT_SET_NO":999,"REV_AT_EPOCH":52492,"BSTAR":0.0002665962,"MEAN_MOTION_DOT":0.0002117,"MEAN_MOTION_DDOT":0},{"OBJECT_NAME":"CYGFM03","OBJECT_ID":"2016-078H","EPOCH":"2026-05-22T03:07:11.283744","MEAN_MOTION":15.58604753,"ECCENTRICITY":0.00080801,"INCLINATION":34.9413,"RA_OF_ASC_NODE":44.7884,"ARG_OF_PERICENTER":292.9413,"MEAN_ANOMALY":67.0458,"EPHEMERIS_TYPE":0,"CLASSIFICATION_TYPE":"U","NORAD_CAT_ID":41891,"ELEMENT_SET_NO":999,"REV_AT_EPOCH":52490,"BSTAR":0.00027241209,"MEAN_MOTION_DOT":0.00021631,"MEAN_MOTION_DDOT":0},{"OBJECT_NAME":"FENGYUN 3D","OBJECT_ID":"2017-072A","EPOCH":"2026-05-22T06:47:36.195648","MEAN_MOTION":14.19733304,"ECCENTRICITY":0.00024507,"INCLINATION":99.0119,"RA_OF_ASC_NODE":116.2404,"ARG_OF_PERICENTER":105.0257,"MEAN_ANOMALY":255.119,"EPHEMERIS_TYPE":0,"CLASSIFICATION_TYPE":"U","NORAD_CAT_ID":43010,"ELEMENT_SET_NO":999,"REV_AT_EPOCH":44131,"BSTAR":0.00010026329,"MEAN_MOTION_DOT":1.66e-06,"MEAN_MOTION_DDOT":0},{"OBJECT_NAME":"NOAA 20 (JPSS-1)","OBJECT_ID":"2017-073A","EPOCH":"2026-05-22T06:34:12.909792","MEAN_MOTION":14.19506292,"ECCENTRICITY":0.00011829,"INCLINATION":98.7764,"RA_OF_ASC_NODE":81.9681,"ARG_OF_PERICENTER":41.3563,"MEAN_ANOMALY":318.7702,"EPHEMERIS_TYPE":0,"CLASSIFICATION_TYPE":"U","NORAD_CAT_ID":43013,"ELEMENT_SET_NO":999,"REV_AT_EPOCH":44079,"BSTAR":3.9161954e-05,"MEAN_MOTION_DOT":3.8e-07,"MEAN_MOTION_DDOT":0},{"OBJECT_NAME":"METOP-C","OBJECT_ID":"2018-087A","EPOCH":"2026-05-22T05:39:33.321312","MEAN_MOTION":14.21504146,"ECCENTRICITY":6.363e-05,"INCLINATION":98.6657,"RA_OF_ASC_NODE":202.3116,"ARG_OF_PERICENTER":149.8105,"MEAN_ANOMALY":210.311,"EPHEMERIS_TYPE":0,"CLASSIFICATION_TYPE":"U","NORAD_CAT_ID":43689,"ELEMENT_SET_NO":999,"REV_AT_EPOCH":39114,"BSTAR":4.944015e-05,"MEAN_MOTION_DOT":6.5e-07,"MEAN_MOTION_DDOT":0},{"OBJECT_NAME":"METEOR-M2 2","OBJECT_ID":"2019-038A","EPOCH":"2026-05-22T06:05:04.449408","MEAN_MOTION":14.24357889,"ECCENTRICITY":0.0002396,"INCLINATION":98.9143,"RA_OF_ASC_NODE":129.1586,"ARG_OF_PERICENTER":87.8622,"MEAN_ANOMALY":272.2831,"EPHEMERIS_TYPE":0,"CLASSIFICATION_TYPE":"U","NORAD_CAT_ID":44387,"ELEMENT_SET_NO":999,"REV_AT_EPOCH":35760,"BSTAR":6.3419124e-05,"MEAN_MOTION_DOT":1.01e-06,"MEAN_MOTION_DDOT":0},{"OBJECT_NAME":"ARKTIKA-M 1","OBJECT_ID":"2021-016A","EPOCH":"2026-05-21T01:50:55.121568","MEAN_MOTION":2.00631518,"ECCENTRICITY":0.72785645,"INCLINATION":63.234,"RA_OF_ASC_NODE":61.5559,"ARG_OF_PERICENTER":269.8154,"MEAN_ANOMALY":14.766,"EPHEMERIS_TYPE":0,"CLASSIFICATION_TYPE":"U","NORAD_CAT_ID":47719,"ELEMENT_SET_NO":999,"REV_AT_EPOCH":3824,"BSTAR":0,"MEAN_MOTION_DOT":-1.32e-06,"MEAN_MOTION_DDOT":0},{"OBJECT_NAME":"FENGYUN 3E","OBJECT_ID":"2021-062A","EPOCH":"2026-05-22T06:28:34.137120","MEAN_MOTION":14.19902855,"ECCENTRICITY":0.00021878,"INCLINATION":98.7498,"RA_OF_ASC_NODE":145.9675,"ARG_OF_PERICENTER":130.6631,"MEAN_ANOMALY":229.4735,"EPHEMERIS_TYPE":0,"CLASSIFICATION_TYPE":"U","NORAD_CAT_ID":49008,"ELEMENT_SET_NO":999,"REV_AT_EPOCH":25290,"BSTAR":0.0001901632,"MEAN_MOTION_DOT":3.6e-06,"MEAN_MOTION_DDOT":0},{"OBJECT_NAME":"NOAA 21 (JPSS-2)","OBJECT_ID":"2022-150A","EPOCH":"2026-05-22T05:41:27.557664","MEAN_MOTION":14.19560123,"ECCENTRICITY":4.961e-05,"INCLINATION":98.7052,"RA_OF_ASC_NODE":81.4633,"ARG_OF_PERICENTER":281.7424,"MEAN_ANOMALY":78.3697,"EPHEMERIS_TYPE":0,"CLASSIFICATION_TYPE":"U","NORAD_CAT_ID":54234,"ELEMENT_SET_NO":999,"REV_AT_EPOCH":18286,"BSTAR":4.046336e-05,"MEAN_MOTION_DOT":4.2e-07,"MEAN_MOTION_DDOT":0},{"OBJECT_NAME":"TIANMU-1 03","OBJECT_ID":"2023-039A","EPOCH":"2026-05-22T05:44:53.900736","MEAN_MOTION":15.46458946,"ECCENTRICITY":0.0003386,"INCLINATION":97.5234,"RA_OF_ASC_NODE":315.2105,"ARG_OF_PERICENTER":165.9305,"MEAN_ANOMALY":194.2039,"EPHEMERIS_TYPE":0,"CLASSIFICATION_TYPE":"U","NORAD_CAT_ID":55973,"ELEMENT_SET_NO":999,"REV_AT_EPOCH":17682,"BSTAR":0.00022753388,"MEAN_MOTION_DOT":0.00011185,"MEAN_MOTION_DDOT":0},{"OBJECT_NAME":"TIANMU-1 04","OBJECT_ID":"2023-039B","EPOCH":"2026-05-22T05:43:49.619136","MEAN_MOTION":15.47028291,"ECCENTRICITY":0.00040731,"INCLINATION":97.5171,"RA_OF_ASC_NODE":314.3623,"ARG_OF_PERICENTER":166.0128,"MEAN_ANOMALY":194.1235,"EPHEMERIS_TYPE":0,"CLASSIFICATION_TYPE":"U","NORAD_CAT_ID":55974,"ELEMENT_SET_NO":999,"REV_AT_EPOCH":17683,"BSTAR":0.00023706753,"MEAN_MOTION_DOT":0.00011891,"MEAN_MOTION_DDOT":0}]